GPS BIIA-23 (PRN 18)    
1 22877U 93068A   18334.72999428 -.00000048  00000-0  00000+0 0  9993
2 22877  54.5435  76.6753 0147527  78.0390 336.5569  2.00570159183885
GPS BIIR-2  (PRN 13)    
1 24876U 97035A   18335.54895439  .00000037  00000-0  00000+0 0  9997
2 24876  55.4705 206.2059 0034324  79.8628 280.6048  2.00564162156517
GPS BIIR-3  (PRN 11)    
1 25933U 99055A   18335.61346205 -.00000090  00000-0  00000+0 0  9996
2 25933  52.0010  54.4059 0165398 105.9391 228.2633  2.00563178140327
GPS BIIR-4  (PRN 20)    
1 26360U 00025A   18335.43690487  .00000069  00000-0  00000+0 0  9999
2 26360  53.2581 132.6884 0042921 127.0534 125.7973  2.00563075136018
GPS BIIR-5  (PRN 28)    
1 26407U 00040A   18335.36684410 -.00000048  00000-0  00000+0 0  9997
2 26407  56.3869 324.3499 0198352 274.3518 264.3019  2.00561439134687
GPS BIIR-6  (PRN 14)    
1 26605U 00071A   18335.11035720  .00000038  00000-0  00000+0 0  9996
2 26605  55.0442 203.7496 0102005 248.9522  13.9622  2.00566049132283
GPS BIIR-8  (PRN 16)    
1 27663U 03005A   18335.07319265 -.00000046  00000-0  00000+0 0  9995
2 27663  56.4495 324.1271 0101017  28.5524  57.4236  2.00556618116047
GPS BIIR-9  (PRN 21)    
1 27704U 03010A   18335.49703870 -.00000057  00000-0  00000+0 0  9994
2 27704  54.2167  76.1768 0247741 273.5667  82.7955  2.00574299114856
GPS BIIR-10 (PRN 22)    
1 28129U 03058A   18335.24609184  .00000073  00000-0  00000+0 0  9991
2 28129  53.0705 135.5193 0072204 276.3335  82.8483  2.00566231109542
GPS BIIR-11 (PRN 19)    
1 28190U 04009A   18335.34216812 -.00000087  00000-0  00000+0 0  9995
2 28190  56.2250  24.9217 0091937  75.2251 354.3657  2.00571331107720
GPS BIIR-12 (PRN 23)    
1 28361U 04023A   18335.31814050  .00000049  00000-0  00000+0 0  9993
2 28361  54.0511 198.3119 0127838 227.9181  97.7625  2.00561573105808
GPS BIIR-13 (PRN 02)    
1 28474U 04045A   18335.53403392 -.00000058  00000-0  00000+0 0  9990
2 28474  54.5803  75.8534 0187458 256.5437 228.2167  2.00571495103172
GPS BIIRM-1 (PRN 17)    
1 28874U 05038A   18335.31399052 -.00000085  00000-0  00000+0 0  9990
2 28874  56.3582  22.2526 0131491 259.7306 175.1712  2.00566555 96575
GPS BIIRM-2 (PRN 31)    
1 29486U 06042A   18335.41272324 -.00000050  00000-0  00000+0 0  9991
2 29486  55.0925 260.9678 0091110 354.7522  68.7265  2.00549729 89295
GPS BIIRM-3 (PRN 12)    
1 29601U 06052A   18335.26512285 -.00000047  00000-0  00000+0 0  9993
2 29601  56.4272 323.0362 0069150  57.4308 303.2454  2.00556537 88205
GPS BIIRM-4 (PRN 15)    
1 32260U 07047A   18335.08452741  .00000053  00000-0  00000+0 0  9999
2 32260  53.1750 194.1918 0109233  41.4668 319.4367  2.00571295 81571
GPS BIIRM-5 (PRN 29)    
1 32384U 07062A   18335.36924552 -.00000085  00000-0  00000+0 0  9994
2 32384  56.4369  22.8732 0004008  95.9573 246.8454  2.00573123 80317
GPS BIIRM-6 (PRN 07)    
1 32711U 08012A   18334.99161261 -.00000047  00000-0  00000+0 0  9990
2 32711  54.8290 260.2222 0122500 218.7262 140.4096  2.00568532 78503
GPS BIIRM-8 (PRN 05)    
1 35752U 09043A   18335.42349076  .00000080  00000-0  00000+0 0  9990
2 35752  54.3652 137.9250 0054414  39.6046 297.6245  2.00573556 68082
GPS BIIF-1  (PRN 25)    
1 36585U 10022A   18335.11447164 -.00000047  00000-0  00000+0 0  9991
2 36585  55.7123 319.4838 0075025  47.4225 176.8364  2.00577359 62327
GPS BIIF-2  (PRN 01)    
1 37753U 11036A   18335.21247140 -.00000046  00000-0  00000+0 0  9997
2 37753  55.7778  79.5926 0080360  38.7165 338.1878  2.00564930 54018
GPS BIIF-3  (PRN 24)    
1 38833U 12053A   18335.17077036 -.00000047  00000-0  00000+0 0  9998
2 38833  53.8611 256.6089 0076284  30.3400 330.1213  2.00569926 45072
GPS BIIF-4  (PRN 27)    
1 39166U 13023A   18335.03595852 -.00000083  00000-0  00000+0 0  9992
2 39166  56.0487  19.1050 0061303  22.6012 337.7210  2.00560748 40615
GPS BIIF-5  (PRN 30)    
1 39533U 14008A   18335.03409951 -.00000049  00000-0  00000+0 0  9990
2 39533  53.9999 261.9865 0036139 192.3593 167.5687  2.00565065 34983
GPS BIIF-6  (PRN 06)    
1 39741U 14026A   18335.31412747 -.00000048  00000-0  00000+0 0  9998
2 39741  55.7597  79.1129 0013738 286.6742  73.1690  2.00554828 33264
GPS BIIF-7  (PRN 09)    
1 40105U 14045A   18334.90238973  .00000046  00000-0  00000+0 0  9993
2 40105  54.5775 198.5238 0011856  97.2456 262.9689  2.00550873 31708
GPS BIIF-8  (PRN 03)    
1 40294U 14068A   18334.77793063  .00000084  00000-0  00000+0 0  9990
2 40294  55.1167 139.3488 0017267  34.7559 325.3663  2.00568452 29920
GPS BIIF-9  (PRN 26)    
1 40534U 15013A   18334.91627172 -.00000049  00000-0  00000+0 0  9993
2 40534  54.6473 318.0408 0032859 358.9031   1.0943  2.00553574 26991
GPS BIIF-10  (PRN 08)   
1 40730U 15033A   18335.07177248 -.00000084  00000-0  00000+0 0  9994
2 40730  55.5766  18.5336 0039739 333.2376  26.6105  2.00565267 24755
GPS BIIF-11  (PRN 10)   
1 41019U 15062A   18335.12463169  .00000084  00000-0  00000+0 0  9992
2 41019  55.1201 139.1437 0041312 201.7148 158.1193  2.00564473 22578
GPS BIIF-12  (PRN 32)   
1 41328U 16007A   18335.21574567  .00000048  00000-0  00000+0 0  9990
2 41328  54.8248 198.8474 0024651 214.5311 145.3888  2.00556723 20635
